OBJECT_NAME,OBJECT_ID,EPOCH,MEAN_MOTION,ECCENTRICITY,INCLINATION,RA_OF_ASC_NODE,ARG_OF_PERICENTER,MEAN_ANOMALY,EPHEMERIS_TYPE,CLASSIFICATION_TYPE,NORAD_CAT_ID,ELEMENT_SET_NO,REV_AT_EPOCH,BSTAR,MEAN_MOTION_DOT,MEAN_MOTION_DDOT
GAOFEN-11 01,2018-063A,2026-06-27T06:34:14.940192,15.55569926,.00020557,97.1292,245.1261,305.4889,54.6174,0,U,43585,999,44191,.21879175E-3,.14887E-3,0
ICESAT-2,2018-070A,2026-06-27T07:17:56.904576,15.28203333,.00062537,92.0085,293.7121,96.3560,263.8402,0,U,43613,999,43400,.36716493E-3,.10095E-3,0
HYSIS,2018-096A,2026-06-27T07:04:03.694944,14.78638219,.00018678,97.9841,244.9634,93.1761,266.9664,0,U,43719,999,40891,.23838207E-3,.1694E-4,0
KAZSTSAT,2018-099AB,2026-06-27T00:54:30.637440,14.99899463,.00085637,97.4288,209.5193,42.7264,317.4625,0,U,43783,999,41278,.16036962E-3,.1934E-4,0
SAUDISAT 5A,2018-102A,2026-06-27T07:33:12.867264,15.28149408,.00113189,97.3069,239.7005,98.4418,261.8105,0,U,43831,999,41722,.22215333E-3,.6033E-4,0
SAUDISAT 5B,2018-102C,2026-06-27T07:57:55.410912,15.28400988,.0012049,97.3178,242.8054,100.2221,260.0378,0,U,43833,999,41734,.21074389E-3,.5765E-4,0
GAOFEN-10R,2019-066A,2026-06-27T06:34:59.372256,14.83020881,.00071499,98.0500,131.9270,99.0789,261.1234,0,U,44622,999,36387,.14986388E-3,.1164E-4,0
CARTOSAT-3,2019-081A,2026-06-27T05:37:28.559712,15.19208947,.00132737,97.4311,239.9400,116.1898,244.0703,0,U,44804,999,36499,.23291162E-3,.4846E-4,0
GAOFEN-12 01,2019-082A,2026-06-27T06:51:04.298688,14.80466272,.00018997,97.8101,184.3983,59.7531,300.3869,0,U,44819,999,35558,.59253581E-4,.403E-5,0
CSG-1,2019-092A,2026-06-27T07:30:37.685088,14.82161330,.0001457,97.8889,1.7688,90.1866,269.9514,0,U,44873,999,35297,.59293795E-4,.42E-5,0
NEMO-HD,2020-061F,2026-06-27T05:39:10.961856,15.44791960,.00017723,97.1922,240.0875,74.3615,285.7830,0,U,46277,999,32353,.24434509E-3,.11355E-3,0
SENTINEL-6A,2020-086A,2026-06-27T05:38:54.681504,12.80929986,.00078534,66.0409,114.1826,270.0109,90.0006,0,U,46984,999,26161,-.47363899E-4,-.72E-6,0
CAS500-1,2021-022A,2026-06-27T06:22:50.741184,15.20184683,.0003614,97.3897,73.3152,245.5254,114.5605,0,U,47932,999,29229,.32225665E-3,.6913E-4,0
GAOFEN-12 02,2021-026A,2026-06-27T07:08:33.442656,14.80303537,.0004452,97.9923,176.4369,184.1388,175.9788,0,U,48079,999,28325,.56893483E-4,.381E-5,0
PLEIADES NEO 3,2021-034A,2026-06-27T07:34:17.975712,14.81672451,.00014005,97.8935,252.9363,87.6250,272.5123,0,U,48268,999,27915,-.9399037E-5,-.126E-5,0
PLEIADES NEO 4,2021-073E,2026-06-27T06:45:39.466656,14.81668354,.00013253,97.8936,252.8994,87.2758,272.8607,0,U,49070,999,26286,.11564702E-3,.858E-5,0
LANDSAT 9,2021-088A,2026-06-27T05:20:11.124672,14.57103648,.00012567,98.2279,248.2783,85.1324,275.0017,0,U,49260,999,25246,.83390813E-4,.33E-5,0
CSG-2,2022-008A,2026-06-27T06:41:59.613216,14.82152482,.00015721,97.8889,1.7306,86.1653,273.9739,0,U,51444,999,23808,.1016021E-3,.757E-5,0
GAOFEN-12 03,2022-069A,2026-06-27T06:16:50.943072,14.80051700,.00023706,97.8275,65.8778,92.9360,267.2123,0,U,52912,999,21610,.20411386E-3,.1495E-4,0
SWOT,2022-173A,2026-06-27T06:39:50.466816,14.00170753,.00002894,77.6102,21.6878,86.1030,274.0154,0,U,54754,999,18056,.7125538E-5,.8E-7,0
GAOFEN-12 04,2023-123A,2026-06-27T06:39:59.047200,14.79744570,.00039797,97.9116,96.1493,86.2874,273.8792,0,U,57654,999,15412,.13815056E-3,.987E-5,0
PARS 1,2024-039Q,2026-06-27T06:48:03.401280,15.45929243,.00114798,97.4819,159.5222,82.1245,278.1307,0,U,59065,999,13020,.24202877E-3,.11716E-3,0
RESURS-P 4,2024-061A,2026-06-27T07:42:03.165408,15.32186335,.00027937,97.2752,126.0432,114.7842,245.3691,0,U,59371,999,12531,.1030769E-3,.3127E-4,0
LEGION 1,2024-081A,2026-06-27T06:07:24.727584,15.16732191,.00085333,97.5020,256.0047,342.3527,17.7408,0,U,59625,999,11906,.19588825E-3,.3776E-4,0
LEGION 2,2024-081B,2026-06-27T05:15:47.219328,15.16710701,.00100108,97.5021,256.0664,305.3202,54.7095,0,U,59626,999,11906,.21944076E-3,.4238E-4,0
ALOS-4 (DAICHI-4),2024-123A,2026-06-27T05:39:34.665696,14.79477220,.00015801,97.9217,275.2677,96.5086,263.6306,0,U,60182,999,10736,.21271469E-3,.1538E-4,0
LEGION 3,2024-146A,2026-06-27T03:30:51.565824,15.16023616,.00086178,45.0014,337.1405,227.8663,132.1483,0,U,60452,999,10353,.22517E-3,.4142E-4,0
LEGION 4,2024-146B,2026-06-27T03:35:23.456256,15.16105953,.00126426,45.0019,69.0331,2.5781,357.5161,0,U,60453,999,10238,.23144697E-3,.4278E-4,0
SENTINEL-2C,2024-157A,2026-06-27T04:08:27.134592,14.30820373,.00009177,98.5692,252.8134,89.1947,270.9341,0,U,60989,999,9441,.55597108E-4,.102E-5,0
IONOSFERA-M 1,2024-199A,2026-06-27T06:00:34.032096,14.22755996,.00021539,98.7162,51.3158,96.8938,263.2485,0,U,61735,999,12913,.38313966E-4,.42E-6,0
