GAOFEN-11 01            
1 43585U 18063A   26178.27378403  .00014887  00000+0  21879-3 0  9998
2 43585  97.1292 245.1261 0002055 305.4889  54.6174 15.55569926441916
ICESAT-2                
1 43613U 18070A   26178.30413084  .00010095  00000+0  36716-3 0  9990
2 43613  92.0085 293.7121 0006253  96.3560 263.8402 15.28203333434009
HYSIS                   
1 43719U 18096A   26178.29448721  .00001694  00000+0  23838-3 0  9995
2 43719  97.9841 244.9634 0001867  93.1761 266.9664 14.78638219408915
KAZSTSAT                
1 43783U 18099AB  26178.03785460  .00001934  00000+0  16037-3 0  9995
2 43783  97.4288 209.5193 0008563  42.7264 317.4625 14.99899463412783
SAUDISAT 5A             
1 43831U 18102A   26178.31473226  .00006033  00000+0  22215-3 0  9999
2 43831  97.3069 239.7005 0011318  98.4418 261.8105 15.28149408417220
SAUDISAT 5B             
1 43833U 18102C   26178.33189133  .00005765  00000+0  21074-3 0  9997
2 43833  97.3178 242.8054 0012049 100.2221 260.0378 15.28400988417347
GAOFEN-10R              
1 44622U 19066A   26178.27429829  .00001164  00000+0  14986-3 0  9999
2 44622  98.0500 131.9270 0007149  99.0789 261.1234 14.83020881363879
CARTOSAT-3              
1 44804U 19081A   26178.23435833  .00004846  00000+0  23291-3 0  9995
2 44804  97.4311 239.9400 0013273 116.1898 244.0703 15.19208947364991
GAOFEN-12 01            
1 44819U 19082A   26178.28546642  .00000403  00000+0  59254-4 0  9992
2 44819  97.8101 184.3983 0001899  59.7531 300.3869 14.80466272355582
CSG-1                   
1 44873U 19092A   26178.31293617  .00000420  00000+0  59294-4 0  9991
2 44873  97.8889   1.7688 0001457  90.1866 269.9514 14.82161330352975
NEMO-HD                 
1 46277U 20061F   26178.23554354  .00011355  00000+0  24435-3 0  9995
2 46277  97.1922 240.0875 0001772  74.3615 285.7830 15.44791960323532
SENTINEL-6A             
1 46984U 20086A   26178.23535511 -.00000072  00000+0 -47364-4 0  9994
2 46984  66.0409 114.1826 0007853 270.0109  90.0006 12.80929986261618
CAS500-1                
1 47932U 21022A   26178.26586506  .00006913  00000+0  32226-3 0  9990
2 47932  97.3897  73.3152 0003614 245.5254 114.5605 15.20184683292296
GAOFEN-12 02            
1 48079U 21026A   26178.29760929  .00000381  00000+0  56893-4 0  9993
2 48079  97.9923 176.4369 0004452 184.1388 175.9788 14.80303537283252
PLEIADES NEO 3          
1 48268U 21034A   26178.31548583 -.00000126  00000+0 -93990-5 0  9994
2 48268  97.8935 252.9363 0001400  87.6250 272.5123 14.81672451279159
PLEIADES NEO 4          
1 49070U 21073E   26178.28170679  .00000858  00000+0  11565-3 0  9998
2 49070  97.8936 252.8994 0001325  87.2758 272.8607 14.81668354262863
LANDSAT 9               
1 49260U 21088A   26178.22235098  .00000330  00000+0  83391-4 0  9998
2 49260  98.2279 248.2783 0001256  85.1324 275.0017 14.57103648252461
CSG-2                   
1 51444U 22008A   26178.27916219  .00000757  00000+0  10160-3 0  9990
2 51444  97.8889   1.7306 0001572  86.1653 273.9739 14.82152482238088
GAOFEN-12 03            
1 52912U 22069A   26178.26170073  .00001495  00000+0  20411-3 0  9997
2 52912  97.8275  65.8778 0002370  92.9360 267.2123 14.80051700216100
SWOT                    
1 54754U 22173A   26178.27766744  .00000008  00000+0  71255-5 0  9999
2 54754  77.6102  21.6878 0000289  86.1030 274.0154 14.00170753180560
GAOFEN-12 04            
1 57654U 23123A   26178.27776675  .00000987  00000+0  13815-3 0  9993
2 57654  97.9116  96.1493 0003979  86.2874 273.8792 14.79744570154126
PARS 1                  
1 59065U 24039Q   26178.28337270  .00011716  00000+0  24203-3 0  9998
2 59065  97.4819 159.5222 0011479  82.1245 278.1307 15.45929243130203
RESURS-P 4              
1 59371U 24061A   26178.32086997  .00003127  00000+0  10308-3 0  9993
2 59371  97.2752 126.0432 0002793 114.7842 245.3691 15.32186335125314
LEGION 1                
1 59625U 24081A   26178.25514731  .00003776  00000+0  19589-3 0  9991
2 59625  97.5020 256.0047 0008533 342.3527  17.7408 15.16732191119061
LEGION 2                
1 59626U 24081B   26178.21929652  .00004238  00000+0  21944-3 0  9992
2 59626  97.5021 256.0664 0010010 305.3202  54.7095 15.16710701119066
ALOS-4 (DAICHI-4)       
1 60182U 24123A   26178.23581789  .00001538  00000+0  21271-3 0  9998
2 60182  97.9217 275.2677 0001580  96.5086 263.6306 14.79477220107364
LEGION 3                
1 60452U 24146A   26178.14643016  .00004142  00000+0  22517-3 0  9993
2 60452  45.0014 337.1405 0008617 227.8663 132.1483 15.16023616103537
LEGION 4                
1 60453U 24146B   26178.14957704  .00004278  00000+0  23145-3 0  9994
2 60453  45.0019  69.0331 0012642   2.5781 357.5161 15.16105953102387
SENTINEL-2C             
1 60989U 24157A   26178.17253628  .00000102  00000+0  55597-4 0  9996
2 60989  98.5692 252.8134 0000917  89.1947 270.9341 14.30820373 94418
IONOSFERA-M 1           
1 61735U 24199A   26178.25039389  .00000042  00000+0  38314-4 0  9998
2 61735  98.7162  51.3158 0002153  96.8938 263.2485 14.22755996129130
